start=new Date('2023-03-20T00:00:00.000Z').valueOf();
sats=[{"SITE":"AFWTR","COUNTRY_CODE":"US","ECCENTRICITY":"0.00024680","SEMIMAJOR_AXIS":"6725.657","NORAD_CAT_ID":"55751","OBJECT_NAME":"STARLINK-5577","MEAN_MOTION_DOT":"0.00105107","RCS_SIZE":"LARGE","CLASSIFICATION_TYPE":"U","PERIOD":"91.488","EPHEMERIS_TYPE":"0","REF_FRAME":"TEME","REV_AT_EPOCH":"130","GP_ID":"228480808","MEAN_ANOMALY":"316.2583","OBJECT_ID":"2023-028L","TIME_SYSTEM":"UTC","OBJECT_TYPE":"PAYLOAD","TLE_LINE2":"2 55751  69.9936 109.7917 0002468 271.9870 316.2583 15.73985410  1300","MEAN_MOTION":"15.73985410","PERIAPSIS":"345.862","CENTER_NAME":"EARTH","INCLINATION":"69.9936","RA_OF_ASC_NODE":"109.7917","BSTAR":"0.00072924000000","MEAN_MOTION_DDOT":"0.0000000000000","TLE_LINE1":"1 55751U 23028L   23078.91667824  .00105107  00000-0  72924-3 0  9992","LAUNCH_DATE":"2023-03-03","MEAN_ELEMENT_THEORY":"SGP4","DECAY_DATE":null,"ARG_OF_PERICENTER":"271.9870","EPOCH":"2023-03-19T22:00:00.999936","APOAPSIS":"349.182","FILE":"3865354","ELEMENT_SET_NO":"999"},{"LAUNCH_DATE":"2023-03-03","MEAN_ELEMENT_THEORY":"SGP4","ARG_OF_PERICENTER":"266.4617","DECAY_DATE":null,"EPOCH":"2023-03-19T22:00:00.999936","FILE":"3865354","APOAPSIS":"352.493","ELEMENT_SET_NO":"999","TLE_LINE2":"2 55752  70.0001 109.7941 0003490 266.4617 327.2838 15.73064958  1308","OBJECT_TYPE":"PAYLOAD","MEAN_MOTION":"15.73064958","RA_OF_ASC_NODE":"109.7941","PERIAPSIS":"347.797","CENTER_NAME":"EARTH","INCLINATION":"70.0001","TLE_LINE1":"1 55752U 23028M   23078.91667824 -.00899868  00000-0 -72868-2 0  9995","MEAN_MOTION_DDOT":"0.0000000000000","BSTAR":"-0.00728680000000","GP_ID":"228480869","REV_AT_EPOCH":"130","REF_FRAME":"TEME","TIME_SYSTEM":"UTC","MEAN_ANOMALY":"327.2838","OBJECT_ID":"2023-028M","SITE":"AFWTR","COUNTRY_CODE":"US","ECCENTRICITY":"0.00034900","NORAD_CAT_ID":"55752","OBJECT_NAME":"STARLINK-5613","MEAN_MOTION_DOT":"-0.00899868","SEMIMAJOR_AXIS":"6728.280","PERIOD":"91.541","EPHEMERIS_TYPE":"0","RCS_SIZE":"LARGE","CLASSIFICATION_TYPE":"U"},{"REF_FRAME":"TEME","REV_AT_EPOCH":"130","GP_ID":"228480787","MEAN_ANOMALY":"322.5628","OBJECT_ID":"2023-028N","TIME_SYSTEM":"UTC","SEMIMAJOR_AXIS":"6728.504","MEAN_MOTION_DOT":"-0.00899716","OBJECT_NAME":"STARLINK-5617","NORAD_CAT_ID":"55753","RCS_SIZE":"LARGE","CLASSIFICATION_TYPE":"U","PERIOD":"91.546","EPHEMERIS_TYPE":"0","SITE":"AFWTR","COUNTRY_CODE":"US","ECCENTRICITY":"0.00034840","APOAPSIS":"352.714","FILE":"3865354","ELEMENT_SET_NO":"999","MEAN_ELEMENT_THEORY":"SGP4","LAUNCH_DATE":"2023-03-03","DECAY_DATE":null,"ARG_OF_PERICENTER":"266.8664","EPOCH":"2023-03-19T22:00:00.999936","CENTER_NAME":"EARTH","PERIAPSIS":"348.025","INCLINATION":"70.0001","RA_OF_ASC_NODE":"109.7993","BSTAR":"-0.00731010000000","MEAN_MOTION_DDOT":"0.0000000000000","TLE_LINE1":"1 55753U 23028N   23078.91667824 -.00899716  00000-0 -73101-2 0  9999","TLE_LINE2":"2 55753  70.0001 109.7993 0003484 266.8664 322.5628 15.72986327  1302","OBJECT_TYPE":"PAYLOAD","MEAN_MOTION":"15.72986327"},{"ELEMENT_SET_NO":"999","FILE":"3865354","APOAPSIS":"349.841","EPOCH":"2023-03-19T22:00:00.999936","ARG_OF_PERICENTER":"271.3113","DECAY_DATE":null,"MEAN_ELEMENT_THEORY":"SGP4","LAUNCH_DATE":"2023-03-03","TLE_LINE1":"1 55754U 23028P   23078.91667824  .00112241  00000-0  77507-3 0  9994","MEAN_MOTION_DDOT":"0.0000000000000","BSTAR":"0.00077507000000","RA_OF_ASC_NODE":"109.7851","INCLINATION":"69.9937","CENTER_NAME":"EARTH","PERIAPSIS":"344.733","MEAN_MOTION":"15.74067894","OBJECT_TYPE":"PAYLOAD","TLE_LINE2":"2 55754  69.9937 109.7851 0003797 271.3113 321.8144 15.74067894  1304","TIME_SYSTEM":"UTC","OBJECT_ID":"2023-028P","MEAN_ANOMALY":"321.8144","GP_ID":"228480914","REV_AT_EPOCH":"130","REF_FRAME":"TEME","EPHEMERIS_TYPE":"0","PERIOD":"91.483","CLASSIFICATION_TYPE":"U","RCS_SIZE":"LARGE","NORAD_CAT_ID":"55754","OBJECT_NAME":"STARLINK-5612","MEAN_MOTION_DOT":"0.00112241","SEMIMAJOR_AXIS":"6725.422","ECCENTRICITY":"0.00037970","COUNTRY_CODE":"US","SITE":"AFWTR"},{"BSTAR":"0.00096089000000","MEAN_MOTION_DDOT":"0.0000000000000","TLE_LINE1":"1 55755U 23028Q   23078.91667824  .00139740  00000-0  96089-3 0  9994","PERIAPSIS":"345.125","CENTER_NAME":"EARTH","INCLINATION":"69.9942","RA_OF_ASC_NODE":"109.7877","MEAN_MOTION":"15.74084397","OBJECT_TYPE":"PAYLOAD","TLE_LINE2":"2 55755  69.9942 109.7877 0003144 271.8687 320.1899 15.74084397  1302","ELEMENT_SET_NO":"999","APOAPSIS":"349.354","FILE":"3865354","DECAY_DATE":null,"ARG_OF_PERICENTER":"271.8687","EPOCH":"2023-03-19T22:00:00.999936","LAUNCH_DATE":"2023-03-03","MEAN_ELEMENT_THEORY":"SGP4","RCS_SIZE":"LARGE","CLASSIFICATION_TYPE":"U","PERIOD":"91.482","EPHEMERIS_TYPE":"0","SEMIMAJOR_AXIS":"6725.375","NORAD_CAT_ID":"55755","OBJECT_NAME":"STARLINK-5619","MEAN_MOTION_DOT":"0.00139740","ECCENTRICITY":"0.00031440","SITE":"AFWTR","COUNTRY_CODE":"US","MEAN_ANOMALY":"320.1899","OBJECT_ID":"2023-028Q","TIME_SYSTEM":"UTC","REF_FRAME":"TEME","GP_ID":"228480893","REV_AT_EPOCH":"130"},{"EPHEMERIS_TYPE":"0","PERIOD":"91.539","CLASSIFICATION_TYPE":"U","RCS_SIZE":"LARGE","MEAN_MOTION_DOT":"-0.00899910","OBJECT_NAME":"STARLINK-5614","NORAD_CAT_ID":"55756","SEMIMAJOR_AXIS":"6728.192","ECCENTRICITY":"0.00034850","COUNTRY_CODE":"US","SITE":"AFWTR","TIME_SYSTEM":"UTC","OBJECT_ID":"2023-028R","MEAN_ANOMALY":"326.6564","REV_AT_EPOCH":"130","GP_ID":"228480785","REF_FRAME":"TEME","TLE_LINE1":"1 55756U 23028R   23078.91667824 -.00899910  00000-0 -72775-2 0  9994","BSTAR":"-0.00727750000000","MEAN_MOTION_DDOT":"0.0000000000000","RA_OF_ASC_NODE":"109.7923","INCLINATION":"70.0001","CENTER_NAME":"EARTH","PERIAPSIS":"347.712","MEAN_MOTION":"15.73095939","OBJECT_TYPE":"PAYLOAD","TLE_LINE2":"2 55756  70.0001 109.7923 0003485 268.6961 326.6564 15.73095939  1304","ELEMENT_SET_NO":"999","FILE":"3865354","APOAPSIS":"352.402","EPOCH":"2023-03-19T22:00:00.999936","ARG_OF_PERICENTER":"268.6961","DECAY_DATE":null,"LAUNCH_DATE":"2023-03-03","MEAN_ELEMENT_THEORY":"SGP4"},{"MEAN_MOTION":"15.73025189","OBJECT_TYPE":"PAYLOAD","TLE_LINE2":"2 55757  70.0001 109.7968 0003486 267.2909 324.3004 15.73025189  3207","TLE_LINE1":"1 55757U 23028S   23078.91667824 -.00899782  00000-0 -72985-2 0  9995","BSTAR":"-0.00729850000000","MEAN_MOTION_DDOT":"0.0000000000000","RA_OF_ASC_NODE":"109.7968","INCLINATION":"70.0001","CENTER_NAME":"EARTH","PERIAPSIS":"347.913","EPOCH":"2023-03-19T22:00:00.999936","DECAY_DATE":null,"ARG_OF_PERICENTER":"267.2909","LAUNCH_DATE":"2023-03-03","MEAN_ELEMENT_THEORY":"SGP4","ELEMENT_SET_NO":"999","FILE":"3865079","APOAPSIS":"352.604","ECCENTRICITY":"0.00034860","COUNTRY_CODE":"US","SITE":"AFWTR","EPHEMERIS_TYPE":"0","PERIOD":"91.543","CLASSIFICATION_TYPE":"U","RCS_SIZE":"LARGE","NORAD_CAT_ID":"55757","OBJECT_NAME":"STARLINK-5544","MEAN_MOTION_DOT":"-0.00899782","SEMIMAJOR_AXIS":"6728.394","TIME_SYSTEM":"UTC","OBJECT_ID":"2023-028S","MEAN_ANOMALY":"324.3004","GP_ID":"228447966","REV_AT_EPOCH":"320","REF_FRAME":"TEME"},{"OBJECT_ID":"2023-028T","MEAN_ANOMALY":"324.2657","TIME_SYSTEM":"UTC","REF_FRAME":"TEME","GP_ID":"228480830","REV_AT_EPOCH":"130","ECCENTRICITY":"0.00034840","COUNTRY_CODE":"US","SITE":"AFWTR","CLASSIFICATION_TYPE":"U","RCS_SIZE":"LARGE","EPHEMERIS_TYPE":"0","PERIOD":"91.542","SEMIMAJOR_AXIS":"6728.307","MEAN_MOTION_DOT":"-0.00899836","OBJECT_NAME":"STARLINK-5072","NORAD_CAT_ID":"55758","EPOCH":"2023-03-19T22:00:00.999936","DECAY_DATE":null,"ARG_OF_PERICENTER":"268.9389","LAUNCH_DATE":"2023-03-03","MEAN_ELEMENT_THEORY":"SGP4","ELEMENT_SET_NO":"999","APOAPSIS":"352.516","FILE":"3865354","MEAN_MOTION":"15.73055481","OBJECT_TYPE":"PAYLOAD","TLE_LINE2":"2 55758  70.0001 109.7948 0003484 268.9389 324.2657 15.73055481  1304","MEAN_MOTION_DDOT":"0.0000000000000","BSTAR":"-0.00728950000000","TLE_LINE1":"1 55758U 23028T   23078.91667824 -.00899836  00000-0 -72895-2 0  9996","INCLINATION":"70.0001","CENTER_NAME":"EARTH","PERIAPSIS":"347.828","RA_OF_ASC_NODE":"109.7948"},{"APOAPSIS":"334.253","FILE":"3865354","ELEMENT_SET_NO":"999","MEAN_ELEMENT_THEORY":"SGP4","LAUNCH_DATE":"2023-03-03","EPOCH":"2023-03-19T22:00:00.999936","ARG_OF_PERICENTER":"268.3363","DECAY_DATE":null,"INCLINATION":"69.9922","CENTER_NAME":"EARTH","PERIAPSIS":"330.534","RA_OF_ASC_NODE":"109.7490","BSTAR":"0.00108120000000","MEAN_MOTION_DDOT":"0.0000000000000","TLE_LINE1":"1 55759U 23028U   23078.91667824  .00199309  00000-0  10812-2 0  9994","OBJECT_TYPE":"PAYLOAD","TLE_LINE2":"2 55759  69.9922 109.7490 0002771 268.3363 355.0401 15.79310923  1300","MEAN_MOTION":"15.79310923","REF_FRAME":"TEME","GP_ID":"228480809","REV_AT_EPOCH":"130","OBJECT_ID":"2023-028U","MEAN_ANOMALY":"355.0401","TIME_SYSTEM":"UTC","SEMIMAJOR_AXIS":"6710.529","MEAN_MOTION_DOT":"0.00199309","NORAD_CAT_ID":"55759","OBJECT_NAME":"STARLINK-5081","CLASSIFICATION_TYPE":"U","RCS_SIZE":"LARGE","EPHEMERIS_TYPE":"0","PERIOD":"91.179","COUNTRY_CODE":"US","SITE":"AFWTR","ECCENTRICITY":"0.00027710"},{"TLE_LINE1":"1 55760U 23028V   23078.91667824 -.00899886  00000-0 -72805-2 0  9995","BSTAR":"-0.00728050000000","MEAN_MOTION_DDOT":"0.0000000000000","RA_OF_ASC_NODE":"109.7929","PERIAPSIS":"347.738","CENTER_NAME":"EARTH","INCLINATION":"70.0001","MEAN_MOTION":"15.73085608","OBJECT_TYPE":"PAYLOAD","TLE_LINE2":"2 55760  70.0001 109.7929 0003490 267.0151 327.8019 15.73085608  1305","ELEMENT_SET_NO":"999","FILE":"3865354","APOAPSIS":"352.434","ARG_OF_PERICENTER":"267.0151","DECAY_DATE":null,"EPOCH":"2023-03-19T22:00:00.999936","MEAN_ELEMENT_THEORY":"SGP4","LAUNCH_DATE":"2023-03-03","PERIOD":"91.540","EPHEMERIS_TYPE":"0","RCS_SIZE":"LARGE","CLASSIFICATION_TYPE":"U","NORAD_CAT_ID":"55760","OBJECT_NAME":"STARLINK-5532","MEAN_MOTION_DOT":"-0.00899886","SEMIMAJOR_AXIS":"6728.221","ECCENTRICITY":"0.00034900","SITE":"AFWTR","COUNTRY_CODE":"US","TIME_SYSTEM":"UTC","MEAN_ANOMALY":"327.8019","OBJECT_ID":"2023-028V","REV_AT_EPOCH":"130","GP_ID":"228480934","REF_FRAME":"TEME"}];
